{
  "type": "FeatureCollection",
  "features": [
    {
      "type": "Feature",
      "properties": {
        "norad_id": 66760,
        "name": "TRANSPORTER-15CY",
        "group": "last-30-days",
        "lat": -47.55978035438468,
        "lon": -117.93160675082679,
        "alt_km": 518.6527195461167,
        "timestamp": "2025-12-24T16:52:40.178782+00:00",
        "meta_object_name": "TRANSPORTER-15CY",
        "meta_object_id": "2025-276CY",
        "meta_epoch": "2025-12-24T06:23:08.759904",
        "meta_mean_motion": 15.18204746,
        "meta_eccentricity": 0.00017342,
        "meta_inclination": 97.4397,
        "meta_ra_of_asc_node": 69.8544,
        "meta_arg_of_pericenter": 112.955,
        "meta_mean_anomaly": 247.1867,
        "meta_ephemeris_type": 0,
        "meta_classification_type": "U",
        "meta_norad_cat_id": 66760,
        "meta_element_set_no": 999,
        "meta_rev_at_epoch": 387,
        "meta_bstar": 0.00037155826,
        "meta_mean_motion_dot": 7.534e-05,
        "meta_mean_motion_ddot": 0,
        "tle_line1": "1 66760U 25276CY  25358.26607361  .00007534  00000+0  37156-3 0  9994",
        "tle_line2": "2 66760  97.4397  69.8544 0001734 112.9550 247.1867 15.18204746  3871"
      },
      "geometry": {
        "type": "Point",
        "coordinates": [
          -117.93160675082679,
          -47.55978035438468
        ]
      }
    },
    {
      "type": "Feature",
      "properties": {
        "norad_id": 66761,
        "name": "TRANSPORTER-15CZ",
        "group": "last-30-days",
        "lat": -62.81602161914561,
        "lon": -124.449398217991,
        "alt_km": 518.1965204034168,
        "timestamp": "2025-12-24T16:52:40.178793+00:00",
        "meta_object_name": "TRANSPORTER-15CZ",
        "meta_object_id": "2025-276CZ",
        "meta_epoch": "2025-12-24T06:19:07.655520",
        "meta_mean_motion": 15.18503145,
        "meta_eccentricity": 0.00017283,
        "meta_inclination": 97.4396,
        "meta_ra_of_asc_node": 69.8578,
        "meta_arg_of_pericenter": 122.5058,
        "meta_mean_anomaly": 237.6344,
        "meta_ephemeris_type": 0,
        "meta_classification_type": "U",
        "meta_norad_cat_id": 66761,
        "meta_element_set_no": 999,
        "meta_rev_at_epoch": 387,
        "meta_bstar": 0.00055882975,
        "meta_mean_motion_dot": 0.0001147,
        "meta_mean_motion_ddot": 0,
        "tle_line1": "1 66761U 25276CZ  25358.26328305  .00011470  00000+0  55883-3 0  9994",
        "tle_line2": "2 66761  97.4396  69.8578 0001728 122.5058 237.6344 15.18503145  3870"
      },
      "geometry": {
        "type": "Point",
        "coordinates": [
          -124.449398217991,
          -62.81602161914561
        ]
      }
    },
    {
      "type": "Feature",
      "properties": {
        "norad_id": 66762,
        "name": "HYDROGNSS-1",
        "group": "last-30-days",
        "lat": 29.960266268800822,
        "lon": -105.42532379289996,
        "alt_km": 512.6097244055491,
        "timestamp": "2025-12-24T16:52:40.178805+00:00",
        "meta_object_name": "HYDROGNSS-1",
        "meta_object_id": "2025-276DA",
        "meta_epoch": "2025-12-24T03:33:29.792736",
        "meta_mean_motion": 15.17308645,
        "meta_eccentricity": 0.00010064,
        "meta_inclination": 97.4406,
        "meta_ra_of_asc_node": 69.7093,
        "meta_arg_of_pericenter": 249.5865,
        "meta_mean_anomaly": 110.526,
        "meta_ephemeris_type": 0,
        "meta_classification_type": "U",
        "meta_norad_cat_id": 66762,
        "meta_element_set_no": 999,
        "meta_rev_at_epoch": 385,
        "meta_bstar": 0.00029827884,
        "meta_mean_motion_dot": 5.88e-05,
        "meta_mean_motion_ddot": 0,
        "tle_line1": "1 66762U 25276DA  25358.14826149  .00005880  00000+0  29828-3 0  9999",
        "tle_line2": "2 66762  97.4406  69.7093 0001006 249.5865 110.5260 15.17308645  3850"
      },
      "geometry": {
        "type": "Point",
        "coordinates": [
          -105.42532379289996,
          29.960266268800822
        ]
      }
    },
    {
      "type": "Feature",
      "properties": {
        "norad_id": 66763,
        "name": "HYDROGNSS-2",
        "group": "last-30-days",
        "lat": 18.20661759411692,
        "lon": -107.27235389771711,
        "alt_km": 513.7778278049627,
        "timestamp": "2025-12-24T16:52:40.178815+00:00",
        "meta_object_name": "HYDROGNSS-2",
        "meta_object_id": "2025-276DB",
        "meta_epoch": "2025-12-22T10:21:31.448736",
        "meta_mean_motion": 15.17420203,
        "meta_eccentricity": 0.00013861,
        "meta_inclination": 97.4416,
        "meta_ra_of_asc_node": 68.032,
        "meta_arg_of_pericenter": 244.5475,
        "meta_mean_anomaly": 115.5615,
        "meta_ephemeris_type": 0,
        "meta_classification_type": "U",
        "meta_norad_cat_id": 66763,
        "meta_element_set_no": 999,
        "meta_rev_at_epoch": 359,
        "meta_bstar": 0.00019983047,
        "meta_mean_motion_dot": 3.929e-05,
        "meta_mean_motion_ddot": 0,
        "tle_line1": "1 66763U 25276DB  25356.43161399  .00003929  00000+0  19983-3 0  9992",
        "tle_line2": "2 66763  97.4416  68.0320 0001386 244.5475 115.5615 15.17420203  3595"
      },
      "geometry": {
        "type": "Point",
        "coordinates": [
          -107.27235389771711,
          18.20661759411692
        ]
      }
    },
    {
      "type": "Feature",
      "properties": {
        "norad_id": 66764,
        "name": "TRANSPORTER-15DC",
        "group": "last-30-days",
        "lat": -7.263800732640698,
        "lon": -110.68603125696274,
        "alt_km": 515.261164629017,
        "timestamp": "2025-12-24T16:52:40.178826+00:00",
        "meta_object_name": "TRANSPORTER-15DC",
        "meta_object_id": "2025-276DC",
        "meta_epoch": "2025-12-24T06:33:41.353056",
        "meta_mean_motion": 15.17703692,
        "meta_eccentricity": 0.00021433,
        "meta_inclination": 97.4404,
        "meta_ra_of_asc_node": 69.846,
        "meta_arg_of_pericenter": 188.8925,
        "meta_mean_anomaly": 171.2272,
        "meta_ephemeris_type": 0,
        "meta_classification_type": "U",
        "meta_norad_cat_id": 66764,
        "meta_element_set_no": 999,
        "meta_rev_at_epoch": 387,
        "meta_bstar": 0.00047100156,
        "meta_mean_motion_dot": 9.434e-05,
        "meta_mean_motion_ddot": 0,
        "tle_line1": "1 66764U 25276DC  25358.27339529  .00009434  00000+0  47100-3 0  9998",
        "tle_line2": "2 66764  97.4404  69.8460 0002143 188.8925 171.2272 15.17703692  3874"
      },
      "geometry": {
        "type": "Point",
        "coordinates": [
          -110.68603125696274,
          -7.263800732640698
        ]
      }
    },
    {
      "type": "Feature",
      "properties": {
        "norad_id": 66765,
        "name": "TRANSPORTER-15DD",
        "group": "last-30-days",
        "lat": -80.28058966937688,
        "lon": -159.43597315036988,
        "alt_km": 518.079542095963,
        "timestamp": "2025-12-24T16:52:40.178838+00:00",
        "meta_object_name": "TRANSPORTER-15DD",
        "meta_object_id": "2025-276DD",
        "meta_epoch": "2025-12-24T06:13:57.946080",
        "meta_mean_motion": 15.1876466,
        "meta_eccentricity": 0.00020037,
        "meta_inclination": 97.442,
        "meta_ra_of_asc_node": 69.8701,
        "meta_arg_of_pericenter": 116.4424,
        "meta_mean_anomaly": 243.7016,
        "meta_ephemeris_type": 0,
        "meta_classification_type": "U",
        "meta_norad_cat_id": 66765,
        "meta_element_set_no": 999,
        "meta_rev_at_epoch": 387,
        "meta_bstar": 0.00068841211,
        "meta_mean_motion_dot": 0.00014257,
        "meta_mean_motion_ddot": 0,
        "tle_line1": "1 66765U 25276DD  25358.25969845  .00014257  00000+0  68841-3 0  9991",
        "tle_line2": "2 66765  97.4420  69.8701 0002003 116.4424 243.7016 15.18764660  3871"
      },
      "geometry": {
        "type": "Point",
        "coordinates": [
          -159.43597315036988,
          -80.28058966937688
        ]
      }
    },
    {
      "type": "Feature",
      "properties": {
        "norad_id": 66766,
        "name": "TRANSPORTER-15DE",
        "group": "last-30-days",
        "lat": -65.5242481489085,
        "lon": -126.39296296517459,
        "alt_km": 519.1457618251015,
        "timestamp": "2025-12-24T16:52:40.178849+00:00",
        "meta_object_name": "TRANSPORTER-15DE",
        "meta_object_id": "2025-276DE",
        "meta_epoch": "2025-12-24T06:18:20.850048",
        "meta_mean_motion": 15.18431001,
        "meta_eccentricity": 0.00020428,
        "meta_inclination": 97.4361,
        "meta_ra_of_asc_node": 69.8474,
        "meta_arg_of_pericenter": 86.4008,
        "meta_mean_anomaly": 273.746,
        "meta_ephemeris_type": 0,
        "meta_classification_type": "U",
        "meta_norad_cat_id": 66766,
        "meta_element_set_no": 999,
        "meta_rev_at_epoch": 387,
        "meta_bstar": 0.00051694935,
        "meta_mean_motion_dot": 0.00010582,
        "meta_mean_motion_ddot": 0,
        "tle_line1": "1 66766U 25276DE  25358.26274132  .00010582  00000+0  51695-3 0  9997",
        "tle_line2": "2 66766  97.4361  69.8474 0002042  86.4008 273.7460 15.18431001  3876"
      },
      "geometry": {
        "type": "Point",
        "coordinates": [
          -126.39296296517459,
          -65.5242481489085
        ]
      }
    }
  ]
}